[{"OBJECT_NAME":"STARLINK-34564","OBJECT_ID":"2025-152L","EPOCH":"2026-03-09T12:46:03.832320","MEAN_MOTION":15.05653403,"ECCENTRICITY":0.00025131,"INCLINATION":97.6022,"RA_OF_ASC_NODE":285.3515,"ARG_OF_PERICENTER":80.3591,"MEAN_ANOMALY":279.7919,"EPHEMERIS_TYPE":0,"CLASSIFICATION_TYPE":"U","NORAD_CAT_ID":64852,"ELEMENT_SET_NO":999,"REV_AT_EPOCH":3539,"BSTAR":0.00036496596,"MEAN_MOTION_DOT":5.21e-5,"MEAN_MOTION_DDOT":0},{"OBJECT_NAME":"CP5","OBJECT_ID":"2012-048F","EPOCH":"2026-03-09T13:13:18.209280","MEAN_MOTION":15.25131456,"ECCENTRICITY":0.0097184,"INCLINATION":64.6452,"RA_OF_ASC_NODE":121.238,"ARG_OF_PERICENTER":206.221,"MEAN_ANOMALY":153.3981,"EPHEMERIS_TYPE":0,"CLASSIFICATION_TYPE":"U","NORAD_CAT_ID":38763,"ELEMENT_SET_NO":999,"REV_AT_EPOCH":10155,"BSTAR":0.00057686,"MEAN_MOTION_DOT":0.00016437,"MEAN_MOTION_DDOT":0}]
